[
    {
        "Altitude(m)": 702723.9501612056,
        "Argument of Periapsis(deg)": 0.0034170363559881197,
        "Eccentricity": 0.0,
        "Inclination(deg)": 45.0,
        "Latitude(deg)": 9.076506558865317,
        "Longitude(deg)": 15.646593522177465,
        "Mean Anomaly(deg)": -192.9036350057557,
        "RAAN(deg)": 304.9967744175625,
        "Satellite Name": "Constellation 1 1352",
        "Satellite Number": 1352,
        "Semi-Major Axis(m)": 7083131.272910544,
        "Time(s)": 57
    },
    {
        "Altitude(m)": 702725.2164895058,
        "Argument of Periapsis(deg)": 0.003476984362233526,
        "Eccentricity": 0.0,
        "Inclination(deg)": 45.0,
        "Latitude(deg)": 9.033836395988919,
        "Longitude(deg)": 15.686435063354962,
        "Mean Anomaly(deg)": -192.84293386550584,
        "RAAN(deg)": 304.996717828397,
        "Satellite Name": "Constellation 1 1352",
        "Satellite Number": 1352,
        "Semi-Major Axis(m)": 7083131.272910544,
        "Time(s)": 58
    },
    {
        "Altitude(m)": 702726.5027604594,
        "Argument of Periapsis(deg)": 0.003536932368478932,
        "Eccentricity": 0.0,
        "Inclination(deg)": 45.0,
        "Latitude(deg)": 8.991160919570252,
        "Longitude(deg)": 15.72626605807759,
        "Mean Anomaly(deg)": -192.78223272525602,
        "RAAN(deg)": 304.9966612392314,
        "Satellite Name": "Constellation 1 1352",
        "Satellite Number": 1352,
        "Semi-Major Axis(m)": 7083131.272910544,
        "Time(s)": 59
    },
    {
        "Altitude(m)": 702727.8089868036,
        "Argument of Periapsis(deg)": 0.003596880374724337,
        "Eccentricity": 0.0,
        "Inclination(deg)": 45.0,
        "Latitude(deg)": 8.948480156634098,
        "Longitude(deg)": 15.766086893221338,
        "Mean Anomaly(deg)": -192.721531585006,
        "RAAN(deg)": 304.9966046500659,
        "Satellite Name": "Constellation 1 1352",
        "Satellite Number": 1352,
        "Semi-Major Axis(m)": 7083131.272910544,
        "Time(s)": 60
    },
    {
        "Altitude(m)": 702729.1351811818,
        "Argument of Periapsis(deg)": 0.0036568283809697427,
        "Eccentricity": 0.0,
        "Inclination(deg)": 45.0,
        "Latitude(deg)": 8.905794134184768,
        "Longitude(deg)": 15.805897451349061,
        "Mean Anomaly(deg)": -192.66083044475607,
        "RAAN(deg)": 304.9965480609003,
        "Satellite Name": "Constellation 1 1352",
        "Satellite Number": 1352,
        "Semi-Major Axis(m)": 7083131.272910544,
        "Time(s)": 61
    },
    {
        "Altitude(m)": 702730.4813561577,
        "Argument of Periapsis(deg)": 0.003716776387215149,
        "Eccentricity": 0.0,
        "Inclination(deg)": 45.0,
        "Latitude(deg)": 8.863102879206858,
        "Longitude(deg)": 15.845697783099261,
        "Mean Anomaly(deg)": -192.6001293045062,
        "RAAN(deg)": 304.99649147173466,
        "Satellite Name": "Constellation 1 1352",
        "Satellite Number": 1352,
        "Semi-Major Axis(m)": 7083131.272910544,
        "Time(s)": 62
    },
    {
        "Altitude(m)": 702731.8475242112,
        "Argument of Periapsis(deg)": 0.003776724393460554,
        "Eccentricity": 0.0,
        "Inclination(deg)": 45.0,
        "Latitude(deg)": 8.820406418665417,
        "Longitude(deg)": 15.885487939089263,
        "Mean Anomaly(deg)": -192.53942816425635,
        "RAAN(deg)": 304.99643488256913,
        "Satellite Name": "Constellation 1 1352",
        "Satellite Number": 1352,
        "Semi-Major Axis(m)": 7083131.272910544,
        "Time(s)": 63
    },
    {
        "Altitude(m)": 702733.233697726,
        "Argument of Periapsis(deg)": 0.003836672399705959,
        "Eccentricity": 0.0,
        "Inclination(deg)": 45.0,
        "Latitude(deg)": 8.777704779505715,
        "Longitude(deg)": 15.925267969914975,
        "Mean Anomaly(deg)": -192.47872702400636,
        "RAAN(deg)": 304.99637829340355,
        "Satellite Name": "Constellation 1 1352",
        "Satellite Number": 1352,
        "Semi-Major Axis(m)": 7083131.272910544,
        "Time(s)": 64
    },
    {
        "Altitude(m)": 702734.6398890063,
        "Argument of Periapsis(deg)": 0.003896620405951365,
        "Eccentricity": 0.0,
        "Inclination(deg)": 45.0,
        "Latitude(deg)": 8.734997988653838,
        "Longitude(deg)": 15.96503792615073,
        "Mean Anomaly(deg)": -192.41802588375657,
        "RAAN(deg)": 304.996321704238,
        "Satellite Name": "Constellation 1 1352",
        "Satellite Number": 1352,
        "Semi-Major Axis(m)": 7083131.272910544,
        "Time(s)": 65
    },
    {
        "Altitude(m)": 702736.0661102699,
        "Argument of Periapsis(deg)": 0.003956568412196771,
        "Eccentricity": 0.0,
        "Inclination(deg)": 45.0,
        "Latitude(deg)": 8.69228607301627,
        "Longitude(deg)": 16.004797858350045,
        "Mean Anomaly(deg)": -192.3573247435067,
        "RAAN(deg)": 304.99626511507245,
        "Satellite Name": "Constellation 1 1352",
        "Satellite Number": 1352,
        "Semi-Major Axis(m)": 7083131.272910544,
        "Time(s)": 66
    },
    {
        "Altitude(m)": 702737.5123736468,
        "Argument of Periapsis(deg)": 0.004016516418442176,
        "Eccentricity": 0.0,
        "Inclination(deg)": 45.0,
        "Latitude(deg)": 8.64956905947989,
        "Longitude(deg)": 16.044547648948175,
        "Mean Anomaly(deg)": -192.2966236032567,
        "RAAN(deg)": 304.9962085259068,
        "Satellite Name": "Constellation 1 1352",
        "Satellite Number": 1352,
        "Semi-Major Axis(m)": 7083131.272910544,
        "Time(s)": 67
    },
    {
        "Altitude(m)": 702738.9786911785,
        "Argument of Periapsis(deg)": 0.004076464424687581,
        "Eccentricity": 0.0,
        "Inclination(deg)": 45.0,
        "Latitude(deg)": 8.606846974913593,
        "Longitude(deg)": 16.084287684650455,
        "Mean Anomaly(deg)": -192.23592246300683,
        "RAAN(deg)": 304.9961519367413,
        "Satellite Name": "Constellation 1 1352",
        "Satellite Number": 1352,
        "Semi-Major Axis(m)": 7083131.272910544,
        "Time(s)": 68
    },
    {
        "Altitude(m)": 702740.4650748273,
        "Argument of Periapsis(deg)": 0.004136412430932987,
        "Eccentricity": 0.0,
        "Inclination(deg)": 45.0,
        "Latitude(deg)": 8.56411984616595,
        "Longitude(deg)": 16.124017847850272,
        "Mean Anomaly(deg)": -192.17522132275698,
        "RAAN(deg)": 304.9960953475757,
        "Satellite Name": "Constellation 1 1352",
        "Satellite Number": 1352,
        "Semi-Major Axis(m)": 7083131.272910544,
        "Time(s)": 69
    },
    {
        "Altitude(m)": 702741.971536455,
        "Argument of Periapsis(deg)": 0.004196360437178394,
        "Eccentricity": 0.0,
        "Inclination(deg)": 45.0,
        "Latitude(deg)": 8.52138770006695,
        "Longitude(deg)": 16.1637381890173,
        "Mean Anomaly(deg)": -192.11452018250705,
        "RAAN(deg)": 304.9960387584102,
        "Satellite Name": "Constellation 1 1352",
        "Satellite Number": 1352,
        "Semi-Major Axis(m)": 7083131.272910544,
        "Time(s)": 70
    },
    {
        "Altitude(m)": 702743.4980878487,
        "Argument of Periapsis(deg)": 0.004256308443423799,
        "Eccentricity": 0.0,
        "Inclination(deg)": 45.0,
        "Latitude(deg)": 8.478650563427744,
        "Longitude(deg)": 16.203448758600324,
        "Mean Anomaly(deg)": -192.0538190422571,
        "RAAN(deg)": 304.9959821692446,
        "Satellite Name": "Constellation 1 1352",
        "Satellite Number": 1352,
        "Semi-Major Axis(m)": 7083131.272910544,
        "Time(s)": 71
    },
    {
        "Altitude(m)": 702745.0447407053,
        "Argument of Periapsis(deg)": 0.004316256449669204,
        "Eccentricity": 0.0,
        "Inclination(deg)": 45.0,
        "Latitude(deg)": 8.435908463040855,
        "Longitude(deg)": 16.24314960702742,
        "Mean Anomaly(deg)": -191.9931179020073,
        "RAAN(deg)": 304.99592558007896,
        "Satellite Name": "Constellation 1 1352",
        "Satellite Number": 1352,
        "Semi-Major Axis(m)": 7083131.272910544,
        "Time(s)": 72
    },
    {
        "Altitude(m)": 702746.6115066292,
        "Argument of Periapsis(deg)": 0.00437620445591461,
        "Eccentricity": 0.0,
        "Inclination(deg)": 45.0,
        "Latitude(deg)": 8.39316142567963,
        "Longitude(deg)": 16.28284078470658,
        "Mean Anomaly(deg)": -191.93241676175737,
        "RAAN(deg)": 304.99586899091344,
        "Satellite Name": "Constellation 1 1352",
        "Satellite Number": 1352,
        "Semi-Major Axis(m)": 7083131.272910544,
        "Time(s)": 73
    },
    {
        "Altitude(m)": 702748.1983971491,
        "Argument of Periapsis(deg)": 0.004436152462160016,
        "Eccentricity": 0.0,
        "Inclination(deg)": 45.0,
        "Latitude(deg)": 8.350409478098994,
        "Longitude(deg)": 16.322522173927712,
        "Mean Anomaly(deg)": -191.8717156215074,
        "RAAN(deg)": 304.99581240174786,
        "Satellite Name": "Constellation 1 1352",
        "Satellite Number": 1352,
        "Semi-Major Axis(m)": 7083131.272910544,
        "Time(s)": 74
    },
    {
        "Altitude(m)": 702749.8054236933,
        "Argument of Periapsis(deg)": 0.0044961004684054215,
        "Eccentricity": 0.0,
        "Inclination(deg)": 45.0,
        "Latitude(deg)": 8.307652647036184,
        "Longitude(deg)": 16.362194161251796,
        "Mean Anomaly(deg)": -191.81101448125756,
        "RAAN(deg)": 304.9957558125823,
        "Satellite Name": "Constellation 1 1352",
        "Satellite Number": 1352,
        "Semi-Major Axis(m)": 7083131.272910544,
        "Time(s)": 75
    }
]